{
  "type": "FeatureCollection",
  "features": [
    {
      "type": "Feature",
      "properties": {
        "norad_id": 36664,
        "name": "FENGYUN 1C DEB",
        "group": "fengyun-1c-debris",
        "lat": 24.250880885096645,
        "lon": -159.35937891825677,
        "alt_km": 790.048356932266,
        "timestamp": "2025-12-18T07:01:54.877966+00:00",
        "meta_object_name": "FENGYUN 1C DEB",
        "meta_object_id": "1999-025DYJ",
        "meta_epoch": "2025-12-17T08:18:14.152032",
        "meta_mean_motion": 14.17958557,
        "meta_eccentricity": 0.01735718,
        "meta_inclination": 98.604,
        "meta_ra_of_asc_node": 15.8116,
        "meta_arg_of_pericenter": 86.5213,
        "meta_mean_anomaly": 275.5797,
        "meta_ephemeris_type": 0,
        "meta_classification_type": "U",
        "meta_norad_cat_id": 36664,
        "meta_element_set_no": 999,
        "meta_rev_at_epoch": 63816,
        "meta_bstar": 7.9887829e-05,
        "meta_mean_motion_dot": 1.48e-06,
        "meta_mean_motion_ddot": 0,
        "tle_line1": "1 36664U 99025DYJ 25351.34599713  .00000148  00000+0  79888-4 0  9993",
        "tle_line2": "2 36664  98.6040  15.8116 0173571  86.5213 275.5797 14.17958557638163"
      },
      "geometry": {
        "type": "Point",
        "coordinates": [
          -159.35937891825677,
          24.250880885096645
        ]
      }
    },
    {
      "type": "Feature",
      "properties": {
        "norad_id": 36668,
        "name": "FENGYUN 1C DEB",
        "group": "fengyun-1c-debris",
        "lat": 81.37269044051784,
        "lon": -84.40916570808382,
        "alt_km": 852.022191341197,
        "timestamp": "2025-12-18T07:01:54.877976+00:00",
        "meta_object_name": "FENGYUN 1C DEB",
        "meta_object_id": "1999-025DYN",
        "meta_epoch": "2025-12-17T05:09:28.342368",
        "meta_mean_motion": 14.15404749,
        "meta_eccentricity": 0.00515339,
        "meta_inclination": 98.6094,
        "meta_ra_of_asc_node": 1.4381,
        "meta_arg_of_pericenter": 212.7944,
        "meta_mean_anomaly": 147.0028,
        "meta_ephemeris_type": 0,
        "meta_classification_type": "U",
        "meta_norad_cat_id": 36668,
        "meta_element_set_no": 999,
        "meta_rev_at_epoch": 57481,
        "meta_bstar": 0.00052755734,
        "meta_mean_motion_dot": 1e-05,
        "meta_mean_motion_ddot": 0,
        "tle_line1": "1 36668U 99025DYN 25351.21491137  .00001000  00000+0  52756-3 0  9996",
        "tle_line2": "2 36668  98.6094   1.4381 0051533 212.7944 147.0028 14.15404749574816"
      },
      "geometry": {
        "type": "Point",
        "coordinates": [
          -84.40916570808382,
          81.37269044051784
        ]
      }
    },
    {
      "type": "Feature",
      "properties": {
        "norad_id": 36676,
        "name": "FENGYUN 1C DEB",
        "group": "fengyun-1c-debris",
        "lat": 0.6293009169524687,
        "lon": -108.1534046013935,
        "alt_km": 778.1807905626574,
        "timestamp": "2025-12-18T07:01:54.877986+00:00",
        "meta_object_name": "FENGYUN 1C DEB",
        "meta_object_id": "1999-025DYW",
        "meta_epoch": "2025-12-12T12:03:08.237952",
        "meta_mean_motion": 14.43199836,
        "meta_eccentricity": 0.00955768,
        "meta_inclination": 98.7673,
        "meta_ra_of_asc_node": 245.9859,
        "meta_arg_of_pericenter": 132.3194,
        "meta_mean_anomaly": 40.1509,
        "meta_ephemeris_type": 0,
        "meta_classification_type": "U",
        "meta_norad_cat_id": 36676,
        "meta_element_set_no": 999,
        "meta_rev_at_epoch": 65062,
        "meta_bstar": 0.00064689298,
        "meta_mean_motion_dot": 2.25e-05,
        "meta_mean_motion_ddot": 0,
        "tle_line1": "1 36676U 99025DYW 25346.50217868  .00002250  00000+0  64689-3 0  9994",
        "tle_line2": "2 36676  98.7673 245.9859 0095576 132.3194  40.1509 14.43199836650623"
      },
      "geometry": {
        "type": "Point",
        "coordinates": [
          -108.1534046013935,
          0.6293009169524687
        ]
      }
    },
    {
      "type": "Feature",
      "properties": {
        "norad_id": 36678,
        "name": "FENGYUN 1C DEB",
        "group": "fengyun-1c-debris",
        "lat": -77.57855733630437,
        "lon": 113.01417829741874,
        "alt_km": 743.3356474901893,
        "timestamp": "2025-12-18T07:01:54.877996+00:00",
        "meta_object_name": "FENGYUN 1C DEB",
        "meta_object_id": "1999-025DYY",
        "meta_epoch": "2025-11-26T04:26:16.761408",
        "meta_mean_motion": 14.37944691,
        "meta_eccentricity": 0.01523469,
        "meta_inclination": 98.2901,
        "meta_ra_of_asc_node": 313.1233,
        "meta_arg_of_pericenter": 42.409,
        "meta_mean_anomaly": 318.8754,
        "meta_ephemeris_type": 0,
        "meta_classification_type": "U",
        "meta_norad_cat_id": 36678,
        "meta_element_set_no": 999,
        "meta_rev_at_epoch": 64751,
        "meta_bstar": 0.00045851479,
        "meta_mean_motion_dot": 1.539e-05,
        "meta_mean_motion_ddot": 0,
        "tle_line1": "1 36678U 99025DYY 25330.18491622  .00001539  00000+0  45851-3 0  9994",
        "tle_line2": "2 36678  98.2901 313.1233 0152346  42.4090 318.8754 14.37944691647514"
      },
      "geometry": {
        "type": "Point",
        "coordinates": [
          113.01417829741874,
          -77.57855733630437
        ]
      }
    },
    {
      "type": "Feature",
      "properties": {
        "norad_id": 36679,
        "name": "FENGYUN 1C DEB",
        "group": "fengyun-1c-debris",
        "lat": 48.09928159536705,
        "lon": 178.25360339151572,
        "alt_km": 835.5251663345052,
        "timestamp": "2025-12-18T07:01:54.878006+00:00",
        "meta_object_name": "FENGYUN 1C DEB",
        "meta_object_id": "1999-025DYZ",
        "meta_epoch": "2025-12-12T05:06:20.489760",
        "meta_mean_motion": 14.04635854,
        "meta_eccentricity": 0.00860329,
        "meta_inclination": 98.8358,
        "meta_ra_of_asc_node": 342.3526,
        "meta_arg_of_pericenter": 94.9778,
        "meta_mean_anomaly": 266.1218,
        "meta_ephemeris_type": 0,
        "meta_classification_type": "U",
        "meta_norad_cat_id": 36679,
        "meta_element_set_no": 999,
        "meta_rev_at_epoch": 24541,
        "meta_bstar": 0.00093240851,
        "meta_mean_motion_dot": 1.499e-05,
        "meta_mean_motion_ddot": 0,
        "tle_line1": "1 36679U 99025DYZ 25346.21273715  .00001499  00000+0  93241-3 0  9998",
        "tle_line2": "2 36679  98.8358 342.3526 0086032  94.9778 266.1218 14.04635854245414"
      },
      "geometry": {
        "type": "Point",
        "coordinates": [
          178.25360339151572,
          48.09928159536705
        ]
      }
    },
    {
      "type": "Feature",
      "properties": {
        "norad_id": 36680,
        "name": "FENGYUN 1C DEB",
        "group": "fengyun-1c-debris",
        "lat": 17.586518498921357,
        "lon": -18.511674263335866,
        "alt_km": 940.1848683611661,
        "timestamp": "2025-12-18T07:01:54.878016+00:00",
        "meta_object_name": "FENGYUN 1C DEB",
        "meta_object_id": "1999-025DZA",
        "meta_epoch": "2025-12-17T18:15:17.256960",
        "meta_mean_motion": 14.18643852,
        "meta_eccentricity": 0.01884461,
        "meta_inclination": 98.5491,
        "meta_ra_of_asc_node": 343.7076,
        "meta_arg_of_pericenter": 234.8383,
        "meta_mean_anomaly": 304.4054,
        "meta_ephemeris_type": 0,
        "meta_classification_type": "U",
        "meta_norad_cat_id": 36680,
        "meta_element_set_no": 999,
        "meta_rev_at_epoch": 64368,
        "meta_bstar": 0.00035463309,
        "meta_mean_motion_dot": 8.32e-06,
        "meta_mean_motion_ddot": 0,
        "tle_line1": "1 36680U 99025DZA 25351.76061640  .00000832  00000+0  35463-3 0  9990",
        "tle_line2": "2 36680  98.5491 343.7076 0188446 234.8383 304.4054 14.18643852643682"
      },
      "geometry": {
        "type": "Point",
        "coordinates": [
          -18.511674263335866,
          17.586518498921357
        ]
      }
    },
    {
      "type": "Feature",
      "properties": {
        "norad_id": 36681,
        "name": "FENGYUN 1C DEB",
        "group": "fengyun-1c-debris",
        "lat": 49.735679057686454,
        "lon": -19.678735274219957,
        "alt_km": 846.1630803671069,
        "timestamp": "2025-12-18T07:01:54.878026+00:00",
        "meta_object_name": "FENGYUN 1C DEB",
        "meta_object_id": "1999-025DZB",
        "meta_epoch": "2025-12-10T18:18:12.275712",
        "meta_mean_motion": 14.10256093,
        "meta_eccentricity": 0.00454371,
        "meta_inclination": 98.6973,
        "meta_ra_of_asc_node": 343.4508,
        "meta_arg_of_pericenter": 355.1749,
        "meta_mean_anomaly": 4.8979,
        "meta_ephemeris_type": 0,
        "meta_classification_type": "U",
        "meta_norad_cat_id": 36681,
        "meta_element_set_no": 999,
        "meta_rev_at_epoch": 72730,
        "meta_bstar": 0.00096687905,
        "meta_mean_motion_dot": 1.688e-05,
        "meta_mean_motion_ddot": 0,
        "tle_line1": "1 36681U 99025DZB 25344.76264208  .00001688  00000+0  96688-3 0  9994",
        "tle_line2": "2 36681  98.6973 343.4508 0045437 355.1749   4.8979 14.10256093727309"
      },
      "geometry": {
        "type": "Point",
        "coordinates": [
          -19.678735274219957,
          49.735679057686454
        ]
      }
    }
  ]
}